[{"OBJECT_NAME":"STARLINK-3563","OBJECT_ID":"2022-022G","EPOCH":"2026-03-09T07:23:35.601216","MEAN_MOTION":15.08837142,"ECCENTRICITY":0.00014638,"INCLINATION":53.2194,"RA_OF_ASC_NODE":20.8334,"ARG_OF_PERICENTER":84.9792,"MEAN_ANOMALY":275.1367,"EPHEMERIS_TYPE":0,"CLASSIFICATION_TYPE":"U","NORAD_CAT_ID":51858,"ELEMENT_SET_NO":999,"REV_AT_EPOCH":22296,"BSTAR":3.4786033e-5,"MEAN_MOTION_DOT":2.66e-6,"MEAN_MOTION_DDOT":0},{"OBJECT_NAME":"DISKSAT B","OBJECT_ID":"2025-305B","EPOCH":"2026-03-09T19:33:34.074144","MEAN_MOTION":15.07484556,"ECCENTRICITY":0.00037827,"INCLINATION":45.0018,"RA_OF_ASC_NODE":250.2098,"ARG_OF_PERICENTER":311.4052,"MEAN_ANOMALY":48.6498,"EPHEMERIS_TYPE":0,"CLASSIFICATION_TYPE":"U","NORAD_CAT_ID":67220,"ELEMENT_SET_NO":999,"REV_AT_EPOCH":1231,"BSTAR":0.00082400752,"MEAN_MOTION_DOT":0.00012481,"MEAN_MOTION_DDOT":0}]
